[{"CCSDS_OMM_VERS":"2.0","COMMENT":"GENERATED VIA SPACE-TRACK.ORG API","CREATION_DATE":"2021-03-02T20:15:47","ORIGINATOR":"18 SPCS","OBJECT_NAME":"ONEWEB-0007","OBJECT_ID":"2019-010D","CENTER_NAME":"EARTH","REF_FRAME":"TEME","TIME_SYSTEM":"UTC","MEAN_ELEMENT_THEORY":"SGP4","EPOCH":"2021-03-02T04:00:00.999936","MEAN_MOTION":"13.21825632","ECCENTRICITY":"0.00016470","INCLINATION":"87.9109","RA_OF_ASC_NODE":"282.8415","ARG_OF_PERICENTER":"80.3866","MEAN_ANOMALY":"257.8415","EPHEMERIS_TYPE":"0","CLASSIFICATION_TYPE":"U","NORAD_CAT_ID":"44060","ELEMENT_SET_NO":"999","REV_AT_EPOCH":"170","BSTAR":"-0.05985800000000","MEAN_MOTION_DOT":"-0.00024641","MEAN_MOTION_DDOT":"0.0000000000000","SEMIMAJOR_AXIS":"7555.892","PERIOD":"108.940","APOAPSIS":"1179.001","PERIAPSIS":"1176.512","OBJECT_TYPE":"PAYLOAD","RCS_SIZE":"LARGE","COUNTRY_CODE":"UK","LAUNCH_DATE":"2019-02-27","SITE":"FRGUI","DECAY_DATE":null,"FILE":"2974245","GP_ID":"172707425","TLE_LINE0":"0 ONEWEB-0007","TLE_LINE1":"1 44060U 19010D   21061.16667824 -.00024641  00000-0 -59858-1 0  9990","TLE_LINE2":"2 44060  87.9109 282.8415 0001647  80.3866 257.8415 13.21825632  1702"},{"CCSDS_OMM_VERS":"2.0","COMMENT":"GENERATED VIA SPACE-TRACK.ORG API","CREATION_DATE":"2021-03-02T18:26:12","ORIGINATOR":"18 SPCS","OBJECT_NAME":"ONEWEB-0007","OBJECT_ID":"2019-010D","CENTER_NAME":"EARTH","REF_FRAME":"TEME","TIME_SYSTEM":"UTC","MEAN_ELEMENT_THEORY":"SGP4","EPOCH":"2021-03-02T18:00:00.999648","MEAN_MOTION":"13.21832264","ECCENTRICITY":"0.00015850","INCLINATION":"87.9108","RA_OF_ASC_NODE":"282.7246","ARG_OF_PERICENTER":"81.3331","MEAN_ANOMALY":"151.1007","EPHEMERIS_TYPE":"0","CLASSIFICATION_TYPE":"U","NORAD_CAT_ID":"44060","ELEMENT_SET_NO":"999","REV_AT_EPOCH":"9717","BSTAR":"-0.11220000000000","MEAN_MOTION_DOT":"-0.00046095","MEAN_MOTION_DDOT":"0.0000000000000","SEMIMAJOR_AXIS":"7555.866","PERIOD":"108.940","APOAPSIS":"1178.929","PERIAPSIS":"1176.534","OBJECT_TYPE":"PAYLOAD","RCS_SIZE":"LARGE","COUNTRY_CODE":"UK","LAUNCH_DATE":"2019-02-27","SITE":"FRGUI","DECAY_DATE":null,"FILE":"2974099","GP_ID":"172684576","TLE_LINE0":"0 ONEWEB-0007","TLE_LINE1":"1 44060U 19010D   21061.75001157 -.00046095  00000-0 -11220+0 0  9992","TLE_LINE2":"2 44060  87.9108 282.7246 0001585  81.3331 151.1007 13.21832264 97179"},{"CCSDS_OMM_VERS":"2.0","COMMENT":"GENERATED VIA SPACE-TRACK.ORG API","CREATION_DATE":"2021-03-03T03:24:48","ORIGINATOR":"18 SPCS","OBJECT_NAME":"ONEWEB-0007","OBJECT_ID":"2019-010D","CENTER_NAME":"EARTH","REF_FRAME":"TEME","TIME_SYSTEM":"UTC","MEAN_ELEMENT_THEORY":"SGP4","EPOCH":"2021-03-02T22:00:00.999936","MEAN_MOTION":"13.21793137","ECCENTRICITY":"0.00016290","INCLINATION":"87.9108","RA_OF_ASC_NODE":"282.6909","ARG_OF_PERICENTER":"80.4781","MEAN_ANOMALY":"224.5999","EPHEMERIS_TYPE":"0","CLASSIFICATION_TYPE":"U","NORAD_CAT_ID":"44060","ELEMENT_SET_NO":"999","REV_AT_EPOCH":"174","BSTAR":"0.05763800000000","MEAN_MOTION_DOT":"0.00023869","MEAN_MOTION_DDOT":"0.0000000000000","SEMIMAJOR_AXIS":"7556.016","PERIOD":"108.943","APOAPSIS":"1179.111","PERIAPSIS":"1176.650","OBJECT_TYPE":"PAYLOAD","RCS_SIZE":"LARGE","COUNTRY_CODE":"UK","LAUNCH_DATE":"2019-02-27","SITE":"FRGUI","DECAY_DATE":null,"FILE":"2974426","GP_ID":"172732568","TLE_LINE0":"0 ONEWEB-0007","TLE_LINE1":"1 44060U 19010D   21061.91667824  .00023869  00000-0  57638-1 0  9996","TLE_LINE2":"2 44060  87.9108 282.6909 0001629  80.4781 224.5999 13.21793137  1740"},{"CCSDS_OMM_VERS":"2.0","COMMENT":"GENERATED VIA SPACE-TRACK.ORG API","CREATION_DATE":"2021-03-03T06:16:12","ORIGINATOR":"18 SPCS","OBJECT_NAME":"ONEWEB-0007","OBJECT_ID":"2019-010D","CENTER_NAME":"EARTH","REF_FRAME":"TEME","TIME_SYSTEM":"UTC","MEAN_ELEMENT_THEORY":"SGP4","EPOCH":"2021-03-03T06:00:00.999648","MEAN_MOTION":"13.21830907","ECCENTRICITY":"0.00016920","INCLINATION":"87.9109","RA_OF_ASC_NODE":"282.6245","ARG_OF_PERICENTER":"81.2847","MEAN_ANOMALY":"9.0396","EPHEMERIS_TYPE":"0","CLASSIFICATION_TYPE":"U","NORAD_CAT_ID":"44060","ELEMENT_SET_NO":"999","REV_AT_EPOCH":"9724","BSTAR":"-0.11019000000000","MEAN_MOTION_DOT":"-0.00045272","MEAN_MOTION_DDOT":"0.0000000000000","SEMIMAJOR_AXIS":"7555.872","PERIOD":"108.940","APOAPSIS":"1179.015","PERIAPSIS":"1176.458","OBJECT_TYPE":"PAYLOAD","RCS_SIZE":"LARGE","COUNTRY_CODE":"UK","LAUNCH_DATE":"2019-02-27","SITE":"FRGUI","DECAY_DATE":null,"FILE":"2974449","GP_ID":"172734429","TLE_LINE0":"0 ONEWEB-0007","TLE_LINE1":"1 44060U 19010D   21062.25001157 -.00045272  00000-0 -11019+0 0  9990","TLE_LINE2":"2 44060  87.9109 282.6245 0001692  81.2847   9.0396 13.21830907 97240"},{"CCSDS_OMM_VERS":"2.0","COMMENT":"GENERATED VIA SPACE-TRACK.ORG API","CREATION_DATE":"2021-03-03T20:44:47","ORIGINATOR":"18 SPCS","OBJECT_NAME":"ONEWEB-0007","OBJECT_ID":"2019-010D","CENTER_NAME":"EARTH","REF_FRAME":"TEME","TIME_SYSTEM":"UTC","MEAN_ELEMENT_THEORY":"SGP4","EPOCH":"2021-03-03T16:00:00.999936","MEAN_MOTION":"13.21827928","ECCENTRICITY":"0.00015970","INCLINATION":"87.9110","RA_OF_ASC_NODE":"282.5410","ARG_OF_PERICENTER":"82.2593","MEAN_ANOMALY":"189.6375","EPHEMERIS_TYPE":"0","CLASSIFICATION_TYPE":"U","NORAD_CAT_ID":"44060","ELEMENT_SET_NO":"999","REV_AT_EPOCH":"170","BSTAR":"-0.06713100000000","MEAN_MOTION_DOT":"-0.00027629","MEAN_MOTION_DDOT":"0.0000000000000","SEMIMAJOR_AXIS":"7555.883","PERIOD":"108.940","APOAPSIS":"1178.955","PERIAPSIS":"1176.541","OBJECT_TYPE":"PAYLOAD","RCS_SIZE":"LARGE","COUNTRY_CODE":"UK","LAUNCH_DATE":"2019-02-27","SITE":"FRGUI","DECAY_DATE":null,"FILE":"2974892","GP_ID":"172764218","TLE_LINE0":"0 ONEWEB-0007","TLE_LINE1":"1 44060U 19010D   21062.66667824 -.00027629  00000-0 -67131-1 0  9998","TLE_LINE2":"2 44060  87.9110 282.5410 0001597  82.2593 189.6375 13.21827928  1705"},{"CCSDS_OMM_VERS":"2.0","COMMENT":"GENERATED VIA SPACE-TRACK.ORG API","CREATION_DATE":"2021-03-03T22:16:12","ORIGINATOR":"18 SPCS","OBJECT_NAME":"ONEWEB-0007","OBJECT_ID":"2019-010D","CENTER_NAME":"EARTH","REF_FRAME":"TEME","TIME_SYSTEM":"UTC","MEAN_ELEMENT_THEORY":"SGP4","EPOCH":"2021-03-03T22:00:00.999936","MEAN_MOTION":"13.21792676","ECCENTRICITY":"0.00016120","INCLINATION":"87.9111","RA_OF_ASC_NODE":"282.4903","ARG_OF_PERICENTER":"81.1569","MEAN_ANOMALY":"299.7009","EPHEMERIS_TYPE":"0","CLASSIFICATION_TYPE":"U","NORAD_CAT_ID":"44060","ELEMENT_SET_NO":"999","REV_AT_EPOCH":"9733","BSTAR":"0.06529400000000","MEAN_MOTION_DOT":"0.00027047","MEAN_MOTION_DDOT":"0.0000000000000","SEMIMAJOR_AXIS":"7556.017","PERIOD":"108.943","APOAPSIS":"1179.100","PERIAPSIS":"1176.664","OBJECT_TYPE":"PAYLOAD","RCS_SIZE":"LARGE","COUNTRY_CODE":"UK","LAUNCH_DATE":"2019-02-27","SITE":"FRGUI","DECAY_DATE":null,"FILE":"2974917","GP_ID":"172766286","TLE_LINE0":"0 ONEWEB-0007","TLE_LINE1":"1 44060U 19010D   21062.91667824  .00027047  00000-0  65294-1 0  9996","TLE_LINE2":"2 44060  87.9111 282.4903 0001612  81.1569 299.7009 13.21792676 97333"},{"CCSDS_OMM_VERS":"2.0","COMMENT":"GENERATED VIA SPACE-TRACK.ORG API","CREATION_DATE":"2021-03-04T14:16:10","ORIGINATOR":"18 SPCS","OBJECT_NAME":"ONEWEB-0007","OBJECT_ID":"2019-010D","CENTER_NAME":"EARTH","REF_FRAME":"TEME","TIME_SYSTEM":"UTC","MEAN_ELEMENT_THEORY":"SGP4","EPOCH":"2021-03-04T14:00:01.000224","MEAN_MOTION":"13.21807528","ECCENTRICITY":"0.00016240","INCLINATION":"87.9116","RA_OF_ASC_NODE":"282.3573","ARG_OF_PERICENTER":"82.3104","MEAN_ANOMALY":"229.0593","EPHEMERIS_TYPE":"0","CLASSIFICATION_TYPE":"U","NORAD_CAT_ID":"44060","ELEMENT_SET_NO":"999","REV_AT_EPOCH":"9741","BSTAR":"0.04154200000000","MEAN_MOTION_DOT":"0.00017198","MEAN_MOTION_DDOT":"0.0000000000000","SEMIMAJOR_AXIS":"7555.961","PERIOD":"108.942","APOAPSIS":"1179.053","PERIAPSIS":"1176.599","OBJECT_TYPE":"PAYLOAD","RCS_SIZE":"LARGE","COUNTRY_CODE":"UK","LAUNCH_DATE":"2019-02-27","SITE":"FRGUI","DECAY_DATE":null,"FILE":"2975342","GP_ID":"172797172","TLE_LINE0":"0 ONEWEB-0007","TLE_LINE1":"1 44060U 19010D   21063.58334491  .00017198  00000-0  41542-1 0  9997","TLE_LINE2":"2 44060  87.9116 282.3573 0001624  82.3104 229.0593 13.21807528 97417"},{"CCSDS_OMM_VERS":"2.0","COMMENT":"GENERATED VIA SPACE-TRACK.ORG API","CREATION_DATE":"2021-03-04T21:43:07","ORIGINATOR":"18 SPCS","OBJECT_NAME":"ONEWEB-0007","OBJECT_ID":"2019-010D","CENTER_NAME":"EARTH","REF_FRAME":"TEME","TIME_SYSTEM":"UTC","MEAN_ELEMENT_THEORY":"SGP4","EPOCH":"2021-03-04T16:00:08.000064","MEAN_MOTION":"13.21829961","ECCENTRICITY":"0.00015910","INCLINATION":"87.9116","RA_OF_ASC_NODE":"282.3404","ARG_OF_PERICENTER":"81.5515","MEAN_ANOMALY":"266.5129","EPHEMERIS_TYPE":"0","CLASSIFICATION_TYPE":"U","NORAD_CAT_ID":"44060","ELEMENT_SET_NO":"999","REV_AT_EPOCH":"175","BSTAR":"-0.07059600000000","MEAN_MOTION_DOT":"-0.00029052","MEAN_MOTION_DDOT":"0.0000000000000","SEMIMAJOR_AXIS":"7555.875","PERIOD":"108.940","APOAPSIS":"1178.942","PERIAPSIS":"1176.538","OBJECT_TYPE":"PAYLOAD","RCS_SIZE":"LARGE","COUNTRY_CODE":"UK","LAUNCH_DATE":"2019-02-27","SITE":"FRGUI","DECAY_DATE":null,"FILE":"2975572","GP_ID":"172822002","TLE_LINE0":"0 ONEWEB-0007","TLE_LINE1":"1 44060U 19010D   21063.66675926 -.00029052  00000-0 -70596-1 0  9992","TLE_LINE2":"2 44060  87.9116 282.3404 0001591  81.5515 266.5129 13.21829961  1758"}]